{"type": "FeatureCollection", "features": [{"type": "Feature", "properties": {"norad_id": 24946, "name": "IRIDIUM 33", "group": "iridium-33-debris", "lat": 56.24379785652849, "lon": -120.50716548088872, "alt_km": 766.0138742292829, "timestamp": "2025-12-20T14:38:02.353997+00:00", "meta": {"OBJECT_NAME": "IRIDIUM 33", "OBJECT_ID": "1997-051C", "EPOCH": "2025-12-20T05:41:33.469152", "MEAN_MOTION": 14.35042342, "ECCENTRICITY": 0.00079262, "INCLINATION": 86.3865, "RA_OF_ASC_NODE": 65.0747, "ARG_OF_PERICENTER": 175.124, "MEAN_ANOMALY": 185.0035, "EPHEMERIS_TYPE": 0, "CLASSIFICATION_TYPE": "U", "NORAD_CAT_ID": 24946, "ELEMENT_SET_NO": 999, "REV_AT_EPOCH": 47942, "BSTAR": 8.8821537e-05, "MEAN_MOTION_DOT": 2.73e-06, "MEAN_MOTION_DDOT": 0}, "tle": {"line1": "1 24946U 97051C   25354.23719293  .00000273  00000+0  88822-4 0  9995", "line2": "2 24946  86.3865  65.0747 0007926 175.1240 185.0035 14.35042342479422"}}, "geometry": {"type": "Point", "coordinates": [-120.50716548088872, 56.24379785652849]}}, {"type": "Feature", "properties": {"norad_id": 33773, "name": "IRIDIUM 33 DEB", "group": "iridium-33-debris", "lat": -46.69975681183385, "lon": 53.42410489438704, "alt_km": 763.7609110950834, "timestamp": "2025-12-20T14:38:02.354024+00:00", "meta": {"OBJECT_NAME": "IRIDIUM 33 DEB", "OBJECT_ID": "1997-051L", "EPOCH": "2025-12-20T04:52:02.271648", "MEAN_MOTION": 14.43271484, "ECCENTRICITY": 0.00130688, "INCLINATION": 86.4002, "RA_OF_ASC_NODE": 57.4269, "ARG_OF_PERICENTER": 124.763, "MEAN_ANOMALY": 235.4803, "EPHEMERIS_TYPE": 0, "CLASSIFICATION_TYPE": "U", "NORAD_CAT_ID": 33773, "ELEMENT_SET_NO": 999, "REV_AT_EPOCH": 88455, "BSTAR": 0.00020331998, "MEAN_MOTION_DOT": 7.05e-06, "MEAN_MOTION_DDOT": 0}, "tle": {"line1": "1 33773U 97051L   25354.20280407  .00000705  00000+0  20332-3 0  9991", "line2": "2 33773  86.4002  57.4269 0013068 124.7630 235.4803 14.43271484884552"}}, "geometry": {"type": "Point", "coordinates": [53.42410489438704, -46.69975681183385]}}, {"type": "Feature", "properties": {"norad_id": 33775, "name": "IRIDIUM 33 DEB", "group": "iridium-33-debris", "lat": -13.979070531713752, "lon": 45.2862182111998, "alt_km": 767.0245810078113, "timestamp": "2025-12-20T14:38:02.354039+00:00", "meta": {"OBJECT_NAME": "IRIDIUM 33 DEB", "OBJECT_ID": "1997-051N", "EPOCH": "2025-12-20T03:10:16.234176", "MEAN_MOTION": 14.41482945, "ECCENTRICITY": 0.00150025, "INCLINATION": 86.3628, "RA_OF_ASC_NODE": 46.3974, "ARG_OF_PERICENTER": 132.4513, "MEAN_ANOMALY": 256.8182, "EPHEMERIS_TYPE": 0, "CLASSIFICATION_TYPE": "U", "NORAD_CAT_ID": 33775, "ELEMENT_SET_NO": 999, "REV_AT_EPOCH": 88247, "BSTAR": 0.00021800805, "MEAN_MOTION_DOT": 7.28e-06, "MEAN_MOTION_DDOT": 0}, "tle": {"line1": "1 33775U 97051N   25354.13213234  .00000728  00000+0  21801-3 0  9996", "line2": "2 33775  86.3628  46.3974 0015002 132.4513 256.8182 14.41482945882473"}}, "geometry": {"type": "Point", "coordinates": [45.2862182111998, -13.979070531713752]}}, {"type": "Feature", "properties": {"norad_id": 33776, "name": "IRIDIUM 33 DEB", "group": "iridium-33-debris", "lat": 55.51384645192706, "lon": -107.78230738432691, "alt_km": 750.8482331878286, "timestamp": "2025-12-20T14:38:02.354051+00:00", "meta": {"OBJECT_NAME": "IRIDIUM 33 DEB", "OBJECT_ID": "1997-051P", "EPOCH": "2025-12-20T05:57:25.561728", "MEAN_MOTION": 14.38247544, "ECCENTRICITY": 0.00152202, "INCLINATION": 86.4035, "RA_OF_ASC_NODE": 77.6228, "ARG_OF_PERICENTER": 166.1997, "MEAN_ANOMALY": 247.4339, "EPHEMERIS_TYPE": 0, "CLASSIFICATION_TYPE": "U", "NORAD_CAT_ID": 33776, "ELEMENT_SET_NO": 999, "REV_AT_EPOCH": 88190, "BSTAR": 0.00020711599, "MEAN_MOTION_DOT": 6.5e-06, "MEAN_MOTION_DDOT": 0}, "tle": {"line1": "1 33776U 97051P   25354.24821252  .00000650  00000+0  20712-3 0  9998", "line2": "2 33776  86.4035  77.6228 0015220 166.1997 247.4339 14.38247544881905"}}, "geometry": {"type": "Point", "coordinates": [-107.78230738432691, 55.51384645192706]}}, {"type": "Feature", "properties": {"norad_id": 33777, "name": "IRIDIUM 33 DEB", "group": "iridium-33-debris", "lat": 44.12846094940115, "lon": 35.30298716916945, "alt_km": 707.5951743718115, "timestamp": "2025-12-20T14:38:02.354063+00:00", "meta": {"OBJECT_NAME": "IRIDIUM 33 DEB", "OBJECT_ID": "1997-051Q", "EPOCH": "2025-12-20T02:52:57.439200", "MEAN_MOTION": 14.55661313, "ECCENTRICITY": 0.00057464, "INCLINATION": 86.3776, "RA_OF_ASC_NODE": 31.9929, "ARG_OF_PERICENTER": 216.4794, "MEAN_ANOMALY": 143.6022, "EPHEMERIS_TYPE": 0, "CLASSIFICATION_TYPE": "U", "NORAD_CAT_ID": 33777, "ELEMENT_SET_NO": 999, "REV_AT_EPOCH": 88641, "BSTAR": 0.00052721631, "MEAN_MOTION_DOT": 2.323e-05, "MEAN_MOTION_DDOT": 0}, "tle": {"line1": "1 33777U 97051Q   25354.12010925  .00002323  00000+0  52722-3 0  9998", "line2": "2 33777  86.3776  31.9929 0005746 216.4794 143.6022 14.55661313886414"}}, "geometry": {"type": "Point", "coordinates": [35.30298716916945, 44.12846094940115]}}, {"type": "Feature", "properties": {"norad_id": 33850, "name": "IRIDIUM 33 DEB", "group": "iridium-33-debris", "lat": -13.86229156853641, "lon": 25.890695083159827, "alt_km": 764.0874267416339, "timestamp": "2025-12-20T14:38:02.354074+00:00", "meta": {"OBJECT_NAME": "IRIDIUM 33 DEB", "OBJECT_ID": "1997-051T", "EPOCH": "2025-12-19T23:55:02.065152", "MEAN_MOTION": 14.42161662, "ECCENTRICITY": 0.00129051, "INCLINATION": 86.3411, "RA_OF_ASC_NODE": 27.0591, "ARG_OF_PERICENTER": 139.2842, "MEAN_ANOMALY": 265.4509, "EPHEMERIS_TYPE": 0, "CLASSIFICATION_TYPE": "U", "NORAD_CAT_ID": 33850, "ELEMENT_SET_NO": 999, "REV_AT_EPOCH": 88257, "BSTAR": 0.00025875399, "MEAN_MOTION_DOT": 8.72e-06, "MEAN_MOTION_DDOT": 0}, "tle": {"line1": "1 33850U 97051T   25353.99655168  .00000872  00000+0  25875-3 0  9994", "line2": "2 33850  86.3411  27.0591 0012905 139.2842 265.4509 14.42161662882578"}}, "geometry": {"type": "Point", "coordinates": [25.890695083159827, -13.86229156853641]}}, {"type": "Feature", "properties": {"norad_id": 33853, "name": "IRIDIUM 33 DEB", "group": "iridium-33-debris", "lat": -51.62577691367194, "lon": 171.42977149833018, "alt_km": 762.0397910963957, "timestamp": "2025-12-20T14:38:02.354086+00:00", "meta": {"OBJECT_NAME": "IRIDIUM 33 DEB", "OBJECT_ID": "1997-051W", "EPOCH": "2025-12-20T00:03:55.806336", "MEAN_MOTION": 13.9909965, "ECCENTRICITY": 0.020721, "INCLINATION": 85.9996, "RA_OF_ASC_NODE": 346.6259, "ARG_OF_PERICENTER": 213.3945, "MEAN_ANOMALY": 201.9671, "EPHEMERIS_TYPE": 0, "CLASSIFICATION_TYPE": "U", "NORAD_CAT_ID": 33853, "ELEMENT_SET_NO": 999, "REV_AT_EPOCH": 85447, "BSTAR": 0.0010991, "MEAN_MOTION_DOT": 1.929e-05, "MEAN_MOTION_DDOT": 0}, "tle": {"line1": "1 33853U 97051W   25354.00272924  .00001929  00000+0  10991-2 0  9991", "line2": "2 33853  85.9996 346.6259 0207210 213.3945 201.9671 13.99099650854479"}}, "geometry": {"type": "Point", "coordinates": [171.42977149833018, -51.62577691367194]}}, {"type": "Feature", "properties": {"norad_id": 33860, "name": "IRIDIUM 33 DEB", "group": "iridium-33-debris", "lat": -84.04511909185977, "lon": -13.58648048006395, "alt_km": 673.9312275234752, "timestamp": "2025-12-20T14:38:02.354097+00:00", "meta": {"OBJECT_NAME": "IRIDIUM 33 DEB", "OBJECT_ID": "1997-051AD", "EPOCH": "2025-12-20T03:52:13.322784", "MEAN_MOTION": 14.67450361, "ECCENTRICITY": 0.00065297, "INCLINATION": 86.3822, "RA_OF_ASC_NODE": 23.9529, "ARG_OF_PERICENTER": 329.8946, "MEAN_ANOMALY": 97.1869, "EPHEMERIS_TYPE": 0, "CLASSIFICATION_TYPE": "U", "NORAD_CAT_ID": 33860, "ELEMENT_SET_NO": 999, "REV_AT_EPOCH": 88831, "BSTAR": 0.00071152388, "MEAN_MOTION_DOT": 4.049e-05, "MEAN_MOTION_DDOT": 0}, "tle": {"line1": "1 33860U 97051AD  25354.16126531  .00004049  00000+0  71152-3 0  9991", "line2": "2 33860  86.3822  23.9529 0006529 329.8946  97.1869 14.67450361888319"}}, "geometry": {"type": "Point", "coordinates": [-13.58648048006395, -84.04511909185977]}}, {"type": "Feature", "properties": {"norad_id": 33862, "name": "IRIDIUM 33 DEB", "group": "iridium-33-debris", "lat": 9.670436731752234, "lon": 34.67318351961692, "alt_km": 632.931520819614, "timestamp": "2025-12-20T14:38:02.354108+00:00", "meta": {"OBJECT_NAME": "IRIDIUM 33 DEB", "OBJECT_ID": "1997-051AF", "EPOCH": "2025-12-20T01:36:41.237280", "MEAN_MOTION": 14.69582079, "ECCENTRICITY": 0.00527311, "INCLINATION": 86.4082, "RA_OF_ASC_NODE": 34.2992, "ARG_OF_PERICENTER": 44.6523, "MEAN_ANOMALY": 336.7, "EPHEMERIS_TYPE": 0, "CLASSIFICATION_TYPE": "U", "NORAD_CAT_ID": 33862, "ELEMENT_SET_NO": 999, "REV_AT_EPOCH": 88931, "BSTAR": 0.00085473534, "MEAN_MOTION_DOT": 5.209e-05, "MEAN_MOTION_DDOT": 0}, "tle": {"line1": "1 33862U 97051AF  25354.06714395  .00005209  00000+0  85474-3 0  9994", "line2": "2 33862  86.4082  34.2992 0052731  44.6523 336.7000 14.69582079889312"}}, "geometry": {"type": "Point", "coordinates": [34.67318351961692, 9.670436731752234]}}, {"type": "Feature", "properties": {"norad_id": 33866, "name": "IRIDIUM 33 DEB", "group": "iridium-33-debris", "lat": -83.4395974696421, "lon": -56.05451309087852, "alt_km": 865.4119146392159, "timestamp": "2025-12-20T14:38:02.354119+00:00", "meta": {"OBJECT_NAME": "IRIDIUM 33 DEB", "OBJECT_ID": "1997-051AK", "EPOCH": "2025-12-20T00:30:41.152896", "MEAN_MOTION": 14.25295275, "ECCENTRICITY": 0.01149746, "INCLINATION": 86.3001, "RA_OF_ASC_NODE": 89.9552, "ARG_OF_PERICENTER": 138.2993, "MEAN_ANOMALY": 347.795, "EPHEMERIS_TYPE": 0, "CLASSIFICATION_TYPE": "U", "NORAD_CAT_ID": 33866, "ELEMENT_SET_NO": 999, "REV_AT_EPOCH": 86914, "BSTAR": 0.00039193514, "MEAN_MOTION_DOT": 1.008e-05, "MEAN_MOTION_DDOT": 0}, "tle": {"line1": "1 33866U 97051AK  25354.02130964  .00001008  00000+0  39194-3 0  9999", "line2": "2 33866  86.3001  89.9552 0114974 138.2993 347.7950 14.25295275869140"}}, "geometry": {"type": "Point", "coordinates": [-56.05451309087852, -83.4395974696421]}}]}